2024-173E               
1 61231U 24173E   26065.73780222  .00002848  00000+0  13860-3 0  9992
2 61231  97.4124 139.8220 0001700  89.2671 270.8758 15.19185166 80208
FLOCK 4H-16             
1 66719U 25276BF  26068.76528846  .00008452  00000+0  41273-3 0  9997
2 66719  97.4302 144.0218 0004158  10.1736 349.9581 15.18505927 15325
